HAWK-A                  
1 43765U 18099H   26068.67628545  .00008617  00000+0  36104-3 0  9995
2 43765  97.4051 122.2425 0034260 275.5523  84.1807 15.23231043397949
STARLINK-32017          
1 60032U 24111S   26068.43367630 -.00001222  00000+0 -29137-4 0  9998
2 60032  53.1598  76.8789 0001211  70.1319 289.9812 15.30188427 98998
